{
  "type": "FeatureCollection",
  "features": [
    {
      "type": "Feature",
      "properties": {
        "norad_id": 27954,
        "name": "GALAXY 13 (HORIZONS-1)",
        "group": "intelsat",
        "lat": 0.8060814203540558,
        "lon": 143.57734524129233,
        "alt_km": 35789.8257794335,
        "timestamp": "2025-12-17T13:48:37.211794+00:00",
        "meta_object_name": "GALAXY 13 (HORIZONS-1)",
        "meta_object_id": "2003-044A",
        "meta_epoch": "2025-12-17T07:31:38.616960",
        "meta_mean_motion": 1.00273589,
        "meta_eccentricity": 0.00020929,
        "meta_inclination": 0.9479,
        "meta_ra_of_asc_node": 86.4125,
        "meta_arg_of_pericenter": 176.8263,
        "meta_mean_anomaly": 145.8696,
        "meta_ephemeris_type": 0,
        "meta_classification_type": "U",
        "meta_norad_cat_id": 27954,
        "meta_element_set_no": 999,
        "meta_rev_at_epoch": 4474,
        "meta_bstar": 0,
        "meta_mean_motion_dot": 1.57e-06,
        "meta_mean_motion_ddot": 0,
        "tle_line1": "1 27954U 03044A   25351.31364140  .00000157  00000+0  00000+0 0  9997",
        "tle_line2": "2 27954   0.9479  86.4125 0002092 176.8263 145.8696  1.00273589 44743"
      },
      "geometry": {
        "type": "Point",
        "coordinates": [
          143.57734524129233,
          0.8060814203540558
        ]
      }
    },
    {
      "type": "Feature",
      "properties": {
        "norad_id": 28358,
        "name": "INTELSAT 10-02",
        "group": "intelsat",
        "lat": -0.02555636377030196,
        "lon": -67.36841100935276,
        "alt_km": 35781.995451410134,
        "timestamp": "2025-12-17T13:48:37.211806+00:00",
        "meta_object_name": "INTELSAT 10-02",
        "meta_object_id": "2004-022A",
        "meta_epoch": "2025-12-16T21:54:42.582240",
        "meta_mean_motion": 1.00272018,
        "meta_eccentricity": 9.679e-05,
        "meta_inclination": 0.0232,
        "meta_ra_of_asc_node": 70.3119,
        "meta_arg_of_pericenter": 233.9309,
        "meta_mean_anomaly": 109.2716,
        "meta_ephemeris_type": 0,
        "meta_classification_type": "U",
        "meta_norad_cat_id": 28358,
        "meta_element_set_no": 999,
        "meta_rev_at_epoch": 7872,
        "meta_bstar": 0,
        "meta_mean_motion_dot": 1.4e-07,
        "meta_mean_motion_ddot": 0,
        "tle_line1": "1 28358U 04022A   25350.91299285  .00000014  00000+0  00000+0 0  9997",
        "tle_line2": "2 28358   0.0232  70.3119 0000967 233.9309 109.2716  1.00272018 78728"
      },
      "geometry": {
        "type": "Point",
        "coordinates": [
          -67.36841100935276,
          -0.02555636377030196
        ]
      }
    },
    {
      "type": "Feature",
      "properties": {
        "norad_id": 28626,
        "name": "XM-3 (RHYTHM)",
        "group": "intelsat",
        "lat": -0.13675727152462236,
        "lon": 24.93858511450507,
        "alt_km": 36153.81424927084,
        "timestamp": "2025-12-17T13:48:37.211819+00:00",
        "meta_object_name": "XM-3 (RHYTHM)",
        "meta_object_id": "2005-008A",
        "meta_epoch": "2025-12-17T02:38:50.688096",
        "meta_mean_motion": 0.98950724,
        "meta_eccentricity": 0.00017809,
        "meta_inclination": 0.1857,
        "meta_ra_of_asc_node": 81.8449,
        "meta_arg_of_pericenter": 277.3045,
        "meta_mean_anomaly": 220.1022,
        "meta_ephemeris_type": 0,
        "meta_classification_type": "U",
        "meta_norad_cat_id": 28626,
        "meta_element_set_no": 999,
        "meta_rev_at_epoch": 4079,
        "meta_bstar": 0,
        "meta_mean_motion_dot": -4e-08,
        "meta_mean_motion_ddot": 0,
        "tle_line1": "1 28626U 05008A   25351.11030889 -.00000004  00000+0  00000+0 0  9996",
        "tle_line2": "2 28626   0.1857  81.8449 0001780 277.3045 220.1022  0.98950724 40798"
      },
      "geometry": {
        "type": "Point",
        "coordinates": [
          24.93858511450507,
          -0.13675727152462236
        ]
      }
    },
    {
      "type": "Feature",
      "properties": {
        "norad_id": 28659,
        "name": "DIRECTV 8",
        "group": "intelsat",
        "lat": -0.01622797148556947,
        "lon": 174.52667090847794,
        "alt_km": 35787.959184405874,
        "timestamp": "2025-12-17T13:48:37.211831+00:00",
        "meta_object_name": "DIRECTV 8",
        "meta_object_id": "2005-019A",
        "meta_epoch": "2025-12-17T07:56:53.483712",
        "meta_mean_motion": 1.00272909,
        "meta_eccentricity": 0.00028656,
        "meta_inclination": 0.018,
        "meta_ra_of_asc_node": 326.4689,
        "meta_arg_of_pericenter": 308.6479,
        "meta_mean_anomaly": 171.2805,
        "meta_ephemeris_type": 0,
        "meta_classification_type": "U",
        "meta_norad_cat_id": 28659,
        "meta_element_set_no": 999,
        "meta_rev_at_epoch": 7525,
        "meta_bstar": 0,
        "meta_mean_motion_dot": 2.6e-07,
        "meta_mean_motion_ddot": 0,
        "tle_line1": "1 28659U 05019A   25351.33117458  .00000026  00000+0  00000+0 0  9999",
        "tle_line2": "2 28659   0.0180 326.4689 0002865 308.6479 171.2805  1.00272909 75250"
      },
      "geometry": {
        "type": "Point",
        "coordinates": [
          174.52667090847794,
          -0.01622797148556947
        ]
      }
    },
    {
      "type": "Feature",
      "properties": {
        "norad_id": 28702,
        "name": "GALAXY 28 (G-28)",
        "group": "intelsat",
        "lat": 2.3414470849411755,
        "lon": -155.0994338737358,
        "alt_km": 35781.30016208759,
        "timestamp": "2025-12-17T13:48:37.211843+00:00",
        "meta_object_name": "GALAXY 28 (G-28)",
        "meta_object_id": "2005-022A",
        "meta_epoch": "2025-12-17T06:03:38.655936",
        "meta_mean_motion": 1.00270854,
        "meta_eccentricity": 0.0002891,
        "meta_inclination": 2.8309,
        "meta_ra_of_asc_node": 81.2305,
        "meta_arg_of_pericenter": 190.8852,
        "meta_mean_anomaly": 176.2288,
        "meta_ephemeris_type": 0,
        "meta_classification_type": "U",
        "meta_norad_cat_id": 28702,
        "meta_element_set_no": 999,
        "meta_rev_at_epoch": 5015,
        "meta_bstar": 0,
        "meta_mean_motion_dot": -1.65e-06,
        "meta_mean_motion_ddot": 0,
        "tle_line1": "1 28702U 05022A   25351.25253074 -.00000165  00000+0  00000+0 0  9993",
        "tle_line2": "2 28702   2.8309  81.2305 0002891 190.8852 176.2288  1.00270854 50157"
      },
      "geometry": {
        "type": "Point",
        "coordinates": [
          -155.0994338737358,
          2.3414470849411755
        ]
      }
    },
    {
      "type": "Feature",
      "properties": {
        "norad_id": 29236,
        "name": "GALAXY 16 (G-16)",
        "group": "intelsat",
        "lat": -0.01814982222722083,
        "lon": -165.4311629669472,
        "alt_km": 35781.885729552516,
        "timestamp": "2025-12-17T13:48:37.211854+00:00",
        "meta_object_name": "GALAXY 16 (G-16)",
        "meta_object_id": "2006-023A",
        "meta_epoch": "2025-12-17T06:14:51.385344",
        "meta_mean_motion": 1.00272272,
        "meta_eccentricity": 0.0002452,
        "meta_inclination": 0.0332,
        "meta_ra_of_asc_node": 219.7084,
        "meta_arg_of_pericenter": 41.8008,
        "meta_mean_anomaly": 179.3456,
        "meta_ephemeris_type": 0,
        "meta_classification_type": "U",
        "meta_norad_cat_id": 29236,
        "meta_element_set_no": 999,
        "meta_rev_at_epoch": 7114,
        "meta_bstar": 0,
        "meta_mean_motion_dot": -1.02e-06,
        "meta_mean_motion_ddot": 0,
        "tle_line1": "1 29236U 06023A   25351.26031696 -.00000102  00000+0  00000+0 0  9994",
        "tle_line2": "2 29236   0.0332 219.7084 0002452  41.8008 179.3456  1.00272272 71148"
      },
      "geometry": {
        "type": "Point",
        "coordinates": [
          -165.4311629669472,
          -0.01814982222722083
        ]
      }
    },
    {
      "type": "Feature",
      "properties": {
        "norad_id": 29494,
        "name": "DIRECTV 9S",
        "group": "intelsat",
        "lat": 1.8318972547367232,
        "lon": -167.63565360980428,
        "alt_km": 35783.4649454575,
        "timestamp": "2025-12-17T13:48:37.211866+00:00",
        "meta_object_name": "DIRECTV 9S",
        "meta_object_id": "2006-043A",
        "meta_epoch": "2025-12-17T06:51:09.005760",
        "meta_mean_motion": 1.00271922,
        "meta_eccentricity": 0.00028284,
        "meta_inclination": 1.9514,
        "meta_ra_of_asc_node": 83.1644,
        "meta_arg_of_pericenter": 188,
        "meta_mean_anomaly": 176.5764,
        "meta_ephemeris_type": 0,
        "meta_classification_type": "U",
        "meta_norad_cat_id": 29494,
        "meta_element_set_no": 999,
        "meta_rev_at_epoch": 4956,
        "meta_bstar": 0,
        "meta_mean_motion_dot": -9e-07,
        "meta_mean_motion_ddot": 0,
        "tle_line1": "1 29494U 06043A   25351.28552090 -.00000090  00000+0  00000+0 0  9996",
        "tle_line2": "2 29494   1.9514  83.1644 0002828 188.0000 176.5764  1.00271922 49567"
      },
      "geometry": {
        "type": "Point",
        "coordinates": [
          -167.63565360980428,
          1.8318972547367232
        ]
      }
    }
  ]
}